CCSDS_OMM_VERS = 2.0
CREATION_DATE  = 
ORIGINATOR     = 

OBJECT_NAME    = STARLINK-35556
OBJECT_ID      = 2025-245E
CENTER_NAME    = EARTH
REF_FRAME      = TEME
TIME_SYSTEM    = UTC
MEAN_ELEMENT_THEORY = SGP/SGP4

EPOCH          = 2025-11-13T06:00:02.000160
MEAN_MOTION    = 15.74337852
ECCENTRICITY   = .00007368
INCLINATION    = 53.1550
RA_OF_ASC_NODE = 110.1288
ARG_OF_PERICENTER = 59.5712
MEAN_ANOMALY   = 298.1571

EPHEMERIS_TYPE = 0
CLASSIFICATION_TYPE = U
NORAD_CAT_ID   = 66238
ELEMENT_SET_NO = 999
REV_AT_EPOCH   = 336
BSTAR          = -.15971951E-2
MEAN_MOTION_DOT = -.229748E-2
MEAN_MOTION_DDOT = 0

CCSDS_OMM_VERS = 2.0
CREATION_DATE  = 
ORIGINATOR     = 

OBJECT_NAME    = STARLINK-35554
OBJECT_ID      = 2025-245F
CENTER_NAME    = EARTH
REF_FRAME      = TEME
TIME_SYSTEM    = UTC
MEAN_ELEMENT_THEORY = SGP/SGP4

EPOCH          = 2025-11-13T06:00:02.000160
MEAN_MOTION    = 15.74211206
ECCENTRICITY   = .00013015
INCLINATION    = 53.1551
RA_OF_ASC_NODE = 110.1247
ARG_OF_PERICENTER = 79.1558
MEAN_ANOMALY   = 280.5503

EPHEMERIS_TYPE = 0
CLASSIFICATION_TYPE = U
NORAD_CAT_ID   = 66239
ELEMENT_SET_NO = 999
REV_AT_EPOCH   = 320
BSTAR          = -.12299842E-3
MEAN_MOTION_DOT = -.18621E-3
MEAN_MOTION_DDOT = 0

CCSDS_OMM_VERS = 2.0
CREATION_DATE  = 
ORIGINATOR     = 

OBJECT_NAME    = STARLINK-35546
OBJECT_ID      = 2025-245G
CENTER_NAME    = EARTH
REF_FRAME      = TEME
TIME_SYSTEM    = UTC
MEAN_ELEMENT_THEORY = SGP/SGP4

EPOCH          = 2025-11-13T06:00:02.000160
MEAN_MOTION    = 15.74182676
ECCENTRICITY   = .00010064
INCLINATION    = 53.1552
RA_OF_ASC_NODE = 110.1201
ARG_OF_PERICENTER = 78.0593
MEAN_ANOMALY   = 283.5948

EPHEMERIS_TYPE = 0
CLASSIFICATION_TYPE = U
NORAD_CAT_ID   = 66240
ELEMENT_SET_NO = 999
REV_AT_EPOCH   = 336
BSTAR          = -.58394252E-4
MEAN_MOTION_DOT = -.9169E-4
MEAN_MOTION_DDOT = 0

CCSDS_OMM_VERS = 2.0
CREATION_DATE  = 
ORIGINATOR     = 

OBJECT_NAME    = STARLINK-35497
OBJECT_ID      = 2025-245H
CENTER_NAME    = EARTH
REF_FRAME      = TEME
TIME_SYSTEM    = UTC
MEAN_ELEMENT_THEORY = SGP/SGP4

EPOCH          = 2025-11-13T06:00:02.000160
MEAN_MOTION    = 15.74144618
ECCENTRICITY   = .00009173
INCLINATION    = 53.1554
RA_OF_ASC_NODE = 110.1163
ARG_OF_PERICENTER = 100.3787
MEAN_ANOMALY   = 263.2105

EPHEMERIS_TYPE = 0
CLASSIFICATION_TYPE = U
NORAD_CAT_ID   = 66241
ELEMENT_SET_NO = 999
REV_AT_EPOCH   = 331
BSTAR          = .44834206E-3
MEAN_MOTION_DOT = .65416E-3
MEAN_MOTION_DDOT = 0

CCSDS_OMM_VERS = 2.0
CREATION_DATE  = 
ORIGINATOR     = 

OBJECT_NAME    = STARLINK-35480
OBJECT_ID      = 2025-245J
CENTER_NAME    = EARTH
REF_FRAME      = TEME
TIME_SYSTEM    = UTC
MEAN_ELEMENT_THEORY = SGP/SGP4

EPOCH          = 2025-11-13T06:00:02.000160
MEAN_MOTION    = 15.74124380
ECCENTRICITY   = .00007831
INCLINATION    = 53.1556
RA_OF_ASC_NODE = 110.1050
ARG_OF_PERICENTER = 58.5172
MEAN_ANOMALY   = 310.8226

EPHEMERIS_TYPE = 0
CLASSIFICATION_TYPE = U
NORAD_CAT_ID   = 66242
ELEMENT_SET_NO = 999
REV_AT_EPOCH   = 336
BSTAR          = .78857882E-3
MEAN_MOTION_DOT = .116138E-2
MEAN_MOTION_DDOT = 0

CCSDS_OMM_VERS = 2.0
CREATION_DATE  = 
ORIGINATOR     = 

OBJECT_NAME    = STARLINK-35495
OBJECT_ID      = 2025-245K
CENTER_NAME    = EARTH
REF_FRAME      = TEME
TIME_SYSTEM    = UTC
MEAN_ELEMENT_THEORY = SGP/SGP4

EPOCH          = 2025-11-13T06:00:02.000160
MEAN_MOTION    = 15.74094879
ECCENTRICITY   = .00015494
INCLINATION    = 53.1554
RA_OF_ASC_NODE = 110.1133
ARG_OF_PERICENTER = 86.6433
MEAN_ANOMALY   = 278.8661

EPHEMERIS_TYPE = 0
CLASSIFICATION_TYPE = U
NORAD_CAT_ID   = 66243
ELEMENT_SET_NO = 999
REV_AT_EPOCH   = 336
BSTAR          = .12092356E-2
MEAN_MOTION_DOT = .179559E-2
MEAN_MOTION_DDOT = 0

CCSDS_OMM_VERS = 2.0
CREATION_DATE  = 
ORIGINATOR     = 

OBJECT_NAME    = STARLINK-35517
OBJECT_ID      = 2025-245L
CENTER_NAME    = EARTH
REF_FRAME      = TEME
TIME_SYSTEM    = UTC
MEAN_ELEMENT_THEORY = SGP/SGP4

EPOCH          = 2025-11-13T06:00:02.000160
MEAN_MOTION    = 15.74116713
ECCENTRICITY   = .00014522
INCLINATION    = 53.1554
RA_OF_ASC_NODE = 110.1080
ARG_OF_PERICENTER = 85.8892
MEAN_ANOMALY   = 281.5388

EPHEMERIS_TYPE = 0
CLASSIFICATION_TYPE = U
NORAD_CAT_ID   = 66244
ELEMENT_SET_NO = 999
REV_AT_EPOCH   = 315
BSTAR          = .86388892E-3
MEAN_MOTION_DOT = .127421E-2
MEAN_MOTION_DDOT = 0

CCSDS_OMM_VERS = 2.0
CREATION_DATE  = 
ORIGINATOR     = 

OBJECT_NAME    = STARLINK-35503
OBJECT_ID      = 2025-245M
CENTER_NAME    = EARTH
REF_FRAME      = TEME
TIME_SYSTEM    = UTC
MEAN_ELEMENT_THEORY = SGP/SGP4

EPOCH          = 2025-11-13T06:00:02.000160
MEAN_MOTION    = 15.74141858
ECCENTRICITY   = .0001343
INCLINATION    = 53.1557
RA_OF_ASC_NODE = 110.0998
ARG_OF_PERICENTER = 84.5419
MEAN_ANOMALY   = 286.7038

EPHEMERIS_TYPE = 0
CLASSIFICATION_TYPE = U
NORAD_CAT_ID   = 66245
ELEMENT_SET_NO = 999
REV_AT_EPOCH   = 331
BSTAR          = .62841565E-3
MEAN_MOTION_DOT = .92228E-3
MEAN_MOTION_DDOT = 0

CCSDS_OMM_VERS = 2.0
CREATION_DATE  = 
ORIGINATOR     = 

OBJECT_NAME    = STARLINK-35434
OBJECT_ID      = 2025-245N
CENTER_NAME    = EARTH
REF_FRAME      = TEME
TIME_SYSTEM    = UTC
MEAN_ELEMENT_THEORY = SGP/SGP4

EPOCH          = 2025-11-13T06:00:02.000160
MEAN_MOTION    = 15.74115546
ECCENTRICITY   = .00002799
INCLINATION    = 53.1556
RA_OF_ASC_NODE = 110.0958
ARG_OF_PERICENTER = 128.6175
MEAN_ANOMALY   = 244.5233

EPHEMERIS_TYPE = 0
CLASSIFICATION_TYPE = U
NORAD_CAT_ID   = 66246
ELEMENT_SET_NO = 999
REV_AT_EPOCH   = 315
BSTAR          = .11828536E-2
MEAN_MOTION_DOT = .175706E-2
MEAN_MOTION_DDOT = 0

CCSDS_OMM_VERS = 2.0
CREATION_DATE  = 
ORIGINATOR     = 

OBJECT_NAME    = STARLINK-35481
OBJECT_ID      = 2025-245P
CENTER_NAME    = EARTH
REF_FRAME      = TEME
TIME_SYSTEM    = UTC
MEAN_ELEMENT_THEORY = SGP/SGP4

EPOCH          = 2025-11-13T06:00:02.000160
MEAN_MOTION    = 15.74141523
ECCENTRICITY   = .00013711
INCLINATION    = 53.1556
RA_OF_ASC_NODE = 110.0917
ARG_OF_PERICENTER = 49.4665
MEAN_ANOMALY   = 325.5798

EPHEMERIS_TYPE = 0
CLASSIFICATION_TYPE = U
NORAD_CAT_ID   = 66247
ELEMENT_SET_NO = 999
REV_AT_EPOCH   = 336
BSTAR          = .91333258E-3
MEAN_MOTION_DOT = .135016E-2
MEAN_MOTION_DDOT = 0

CCSDS_OMM_VERS = 2.0
CREATION_DATE  = 
ORIGINATOR     = 

OBJECT_NAME    = STARLINK-35416
OBJECT_ID      = 2025-245Q
CENTER_NAME    = EARTH
REF_FRAME      = TEME
TIME_SYSTEM    = UTC
MEAN_ELEMENT_THEORY = SGP/SGP4

EPOCH          = 2025-11-13T06:00:02.000160
MEAN_MOTION    = 15.74178284
ECCENTRICITY   = .00010789
INCLINATION    = 53.1558
RA_OF_ASC_NODE = 110.0883
ARG_OF_PERICENTER = 84.8555
MEAN_ANOMALY   = 292.1306

EPHEMERIS_TYPE = 0
CLASSIFICATION_TYPE = U
NORAD_CAT_ID   = 66248
ELEMENT_SET_NO = 999
REV_AT_EPOCH   = 331
BSTAR          = .11927172E-3
MEAN_MOTION_DOT = .16865E-3
MEAN_MOTION_DDOT = 0

CCSDS_OMM_VERS = 2.0
CREATION_DATE  = 
ORIGINATOR     = 

OBJECT_NAME    = STARLINK-35304
OBJECT_ID      = 2025-245R
CENTER_NAME    = EARTH
REF_FRAME      = TEME
TIME_SYSTEM    = UTC
MEAN_ELEMENT_THEORY = SGP/SGP4

EPOCH          = 2025-11-13T06:00:02.000160
MEAN_MOTION    = 15.74184227
ECCENTRICITY   = .00011609
INCLINATION    = 53.1558
RA_OF_ASC_NODE = 110.0757
ARG_OF_PERICENTER = 91.4509
MEAN_ANOMALY   = 291.2863

EPHEMERIS_TYPE = 0
CLASSIFICATION_TYPE = U
NORAD_CAT_ID   = 66249
ELEMENT_SET_NO = 999
REV_AT_EPOCH   = 315
BSTAR          = .70017105E-4
MEAN_MOTION_DOT = .9634E-4
MEAN_MOTION_DDOT = 0

