STARLINK-35556          
1 66238U 25245E   25317.25002315 -.00229748  00000+0 -15972-2 0  9998
2 66238  53.1550 110.1288 0000736  59.5712 298.1571 15.74337852  3362
STARLINK-35554          
1 66239U 25245F   25317.25002315 -.00018621  00000+0 -12300-3 0  9998
2 66239  53.1551 110.1247 0001301  79.1558 280.5503 15.74211206  3201
STARLINK-35546          
1 66240U 25245G   25317.25002315 -.00009169  00000+0 -58394-4 0  9991
2 66240  53.1552 110.1201 0001006  78.0593 283.5948 15.74182676  3364
STARLINK-35497          
1 66241U 25245H   25317.25002315  .00065416  00000+0  44834-3 0  9990
2 66241  53.1554 110.1163 0000917 100.3787 263.2105 15.74144618  3317
STARLINK-35480          
1 66242U 25245J   25317.25002315  .00116138  00000+0  78858-3 0  9992
2 66242  53.1556 110.1050 0000783  58.5172 310.8226 15.74124380  3360
STARLINK-35495          
1 66243U 25245K   25317.25002315  .00179559  00000+0  12092-2 0  9996
2 66243  53.1554 110.1133 0001549  86.6433 278.8661 15.74094879  3369
STARLINK-35517          
1 66244U 25245L   25317.25002315  .00127421  00000+0  86389-3 0  9999
2 66244  53.1554 110.1080 0001452  85.8892 281.5388 15.74116713  3150
STARLINK-35503          
1 66245U 25245M   25317.25002315  .00092228  00000+0  62842-3 0  9994
2 66245  53.1557 110.0998 0001343  84.5419 286.7038 15.74141858  3316
STARLINK-35434          
1 66246U 25245N   25317.25002315  .00175706  00000+0  11829-2 0  9996
2 66246  53.1556 110.0958 0000279 128.6175 244.5233 15.74115546  3154
STARLINK-35481          
1 66247U 25245P   25317.25002315  .00135016  00000+0  91333-3 0  9996
2 66247  53.1556 110.0917 0001371  49.4665 325.5798 15.74141523  3361
STARLINK-35416          
1 66248U 25245Q   25317.25002315  .00016865  00000+0  11927-3 0  9998
2 66248  53.1558 110.0883 0001078  84.8555 292.1306 15.74178284  3314
STARLINK-35304          
1 66249U 25245R   25317.25002315  .00009634  00000+0  70017-4 0  9991
2 66249  53.1558 110.0757 0001160  91.4509 291.2863 15.74184227  3154
